STARLINK-5850           
1 57049U 23088B   26068.81430498 -.00001573  00000+0 -10138-3 0  9998
2 57049  43.0034 107.2133 0001367 266.6473  93.4213 15.02527791150578
STRIX-5                 
1 65971U 25229A   26068.48916036  .00006129  00000+0  44900-3 0  9994
2 65971  41.9265 119.8574 0036941 120.2079 240.2413 15.03509399 21964
